0 COSMOS 1638
1 15620U 85023D   13282.47782174 -.00000020  00000-0 -27837-4 0  4550
2 15620 074.0571 055.0203 0016269 290.8626 137.4248 12.49148239302289
0 COSMOS 1638
1 15620U 85023D   13286.89749578 -.00000028  00000-0 -84141-4 0  4572
2 15620 074.0582 049.1656 0016252 284.5766 212.0473 12.49148422302839
0 COSMOS 1638
1 15620U 85023D   13289.43762361 -.00000006  00000-0  65141-4 0  4585
2 15620 074.0582 045.7999 0016355 281.0493 114.5429 12.49148016303156
0 COSMOS 1638
1 15620U 85023D   13291.44591047  .00000008  00000-0  15583-3 0  4596
2 15620 074.0586 043.1412 0016343 277.9992 145.7051 12.49148077303409
0 COSMOS 1638
1 15620U 85023D   13293.44860984  .00000008  00000-0  15857-3 0  4603
2 15620 074.0586 040.4886 0016321 275.1220 151.5756 12.49148264303656
0 COSMOS 1638
1 15620U 85023D   13295.45156934 -.00000014  00000-0  13122-4 0  4612
2 15620 074.0586 037.8355 0016308 272.2111 158.6498 12.49148448303902
